#cP2023 12 26  0  0  0.00000000      96 ORBIT IGS20 HLM  IGS
## 2294 172800.00000000   900.00000000 60304 0.0000000000000
+   32   G01G02G03G04G05G06G07G08G09G10G11G12G13G14G15G16G17
+        G18G19G20G21G22G23G24G25G26G27G28G29G30G31G32  0  0
+          0  0  0  0  0  0  0  0  0  0  0  0  0  0  0  0  0
+          0  0  0  0  0  0  0  0  0  0  0  0  0  0  0  0  0
+          0  0  0  0  0  0  0  0  0  0  0  0  0  0  0  0  0
++         2  2  2  2  2  2  2  2  2  2  2  2  2  2  2  2  2
++         2  2  2  2  2  2  2  2  2  2  2  2  2  2  1  0  0
++         0  0  0  0  0  0  0  0  0  0  0  0  0  0  0  0  0
++         0  0  0  0  0  0  0  0  0  0  0  0  0  0  0  0  0
++         0  0  0  0  0  0  0  0  0  0  0  0  0  0  0  0  0
%c G  cc GPS ccc cccc cccc cccc cccc ccccc ccccc ccccc ccccc
%c cc cc ccc ccc cccc cccc cccc cccc ccccc ccccc ccccc ccccc
%f  1.2500000  1.025000000  0.00000000000  0.000000000000000
%f  0.0000000  0.000000000  0.00000000000  0.000000000000000
%i    0    0    0    0      0      0      0      0         0
%i    0    0    0    0      0      0      0      0         0
/* FINAL ORBIT COMBINATION FROM WEIGHTED AVERAGE OF:        
/* cod emr esa gfz grg jgx jpl mit ngs sio                  
/* REFERENCED TO IGS TIME (IGST) AND TO WEIGHTED MEAN POLE: 
/* PCV:IGS20      OL/AL:FES2014b NONE     Y  ORB:CMB CLK:CMB
*  2023 12 26 16 30  0.00000000
PG01 -21963.963386 -14272.430400  -5752.796505    164.633542  7  7  7  54       
PG02 -18716.129952 -14735.049644 -11481.081972   -510.025762  8  7  7 101       
PG03 -11480.467565 -19462.169922  13902.050592     82.514100  3  6  7  81       
PG04 -14225.929556  -7926.894055  21015.419291    249.771981  4  5  3  80       
PG05   6379.442962  25545.333404  -3273.389446   -155.601035  3  4  7  75       
PG06 -11658.603049  10319.404714  21604.490741    465.725981  4  4  4  80       
PG07 -24968.904343  -4596.767212  -8099.842187    -21.714687  5  4  6 104       
PG08  -6892.079729 -13961.514794 -21563.166618   -158.948737  6  8  3  90       
PG09 -21583.859504   3321.109511  15073.848363     38.923158  2  4  5  59       
PG10  11307.101183 -14035.019734 -19191.848998    -66.858938  6  4  5  86       
PG11   -140.504622  16197.947901  21082.293016   -516.098880  5  7  6 101       
PG12  10236.302048  20329.207227  13467.707956   -461.477113  4  6  7  93       
PG13  -4548.876510  17617.807331 -19473.635751    609.616509  4  6  4 102       
PG14 -13759.902582  10157.425763 -20254.814130    281.581493  5  3  3  65       
PG15   8529.051988  13879.084356 -21445.750298    110.856574  8  6  6  88       
PG16    766.440413 -26190.215311   2044.467076   -396.662178  6  6  7  92       
PG17 -23061.456745  13037.219378  -2345.668798    721.263649  4  5  6  88       
PG18  24322.705671   3432.984794 -10319.342831   -516.401801  5  5  6  77       
PG19 -19780.464887  16328.957345   5949.656167    417.859245  6  8  6  77       
PG20   -451.813771  24582.459324  10327.107892    394.682514  5  7  7  72       
PG21 -15831.298800 -15891.247099 -14424.519030    140.370873  8  6  6  25       
PG22 -10800.015687  17942.072348 -16070.919472     59.157402  6  5  4  44       
PG23  14922.634015   -290.403963 -21960.341232    123.297766  8  4  7  99       
PG24  17908.596693  15701.635626 -12580.475626   -401.463849  5  5  6  86       
PG25  15224.739830   8945.641749  19587.884751    482.968807  5  2  4 104       
PG26   4695.392793 -22970.588021  11981.174188    205.951915  4  5  5 103       
PG27   6843.895661 -19535.796857 -16657.302882    -87.671778  7  6  5  86       
PG28  14348.396539  -9499.767424  20204.623689    -80.657760  6  2  5  87       
PG29  21352.806125   -721.575498  15798.624995   -609.427823  5  6  5  52       
PG30 -20273.915059   4450.636022 -16595.725226   -452.938297  6  3  3 120       
PG31   5983.446366 -14050.649620  21515.792077   -226.899688  3  5  4  97       
PG32  20930.598434 -16160.074483    439.196429   -599.905226  4  4  3  56       
*  2023 12 26 16 45  0.00000000
PG01 -21209.716654 -14097.095348  -8494.334140    164.634177  8  7  7  53       
PG02 -17214.738563 -14477.816575 -13799.700957   -510.021056  8  7  7 104       
PG03 -11536.680538 -20939.191463  11542.515674     82.538152  3  7  7  92       
PG04 -12292.729735  -9406.124578  21605.243289    249.780962  4  5  3  90       
PG05   6184.018930  25778.471735   -405.195066   -155.602520  2  5  7  70       
PG06 -13858.328879   9363.076775  20728.911387    465.714988  4  4  3  79       
PG07 -25641.813662  -5129.585720  -5435.822525    -21.723394  5  5  6  81       
PG08  -4993.466309 -15473.053478 -21008.867912   -158.950160  6  7  4  85       
PG09 -20275.254856   2005.264461  16985.464982     38.933754  3  4  5  67       
PG10  11742.291366 -11763.270867 -20434.238634    -66.860220  6  4  4  93       
PG11  -2378.860163  15230.403203  21658.073788   -516.112080  5  7  6  95       
PG12  10140.391924  21784.657524  11114.154482   -461.480661  4  7  7  93       
PG13  -6432.081498  18574.634277 -17960.861854    609.620506  3  6  3  92       
PG14 -14127.960023   7809.075088 -21043.100734    281.590853  5  3  3  76       
PG15   6879.752596  15530.588538 -20866.108844    110.859813  7  6  6 100       
PG16   1074.512490 -25768.948818   4895.552112   -396.655245  6  6  7  87       
PG17 -22793.546547  12588.311353  -5171.651811    721.263196  4  5  6  90       
PG18  25197.841103   4000.826673  -7700.918333   -516.410529  4  5  6  76       
PG19 -20375.498660  16407.470648   3116.925151    417.863965  5  7  6  80       
PG20  -1074.309119  23411.479732  12720.236081    394.680300  5  7  7  88       
PG21 -14055.815740 -15505.808742 -16388.998830    140.369695  8  7  6  31       
PG22 -11059.849201  15947.717588 -17826.325299     59.151051  6  4  4 106       
PG23  15332.791627   2164.677225 -21586.480097    123.304169  7  5  7  92       
PG24  16412.257058  15493.261408 -14726.728089   -401.470811  4  5  6  84       
PG25  15455.902149  11161.693101  18271.204791    482.970156  5  2  4 100       
PG26   5315.534266 -21533.561537  14196.699045    205.948818  4  4  6 104       
PG27   8337.583601 -20490.558745 -14640.661499    -87.675549  7  6  5  76       
PG28  16425.574593  -8636.298761  18973.929210    -80.667270  7  2  5  83       
PG29  19841.022289    462.700151  17655.337026   -609.427390  6  6  5  45       
PG30 -21872.738545   3580.019834 -14705.280300   -452.934334  6  3  3 115       
PG31   8288.213191 -13078.551148  21401.583899   -226.900094  3  5  4  94       
PG32  20996.050266 -15864.045425  -2426.654240   -599.908273  4  4  2  76       
*  2023 12 26 17  0  0.00000000
PG01 -20166.000554 -13865.337648 -11094.313419    164.634819  8  8  6  43       
PG02 -15452.693595 -14243.003447 -15876.158422   -510.016114  8  8  7 108       
PG03 -11619.165416 -22135.867540   8984.032022     82.562152  3  7  7  77       
PG04 -10404.042323 -11015.273073  21824.044166    249.790000  4  5  3  94       
PG05   5918.642645  25706.184468   2469.995626   -155.604111  2  5  7  57       
PG06 -15995.757474   8572.124552  19499.627062    465.703958  4  3  3  63       
PG07 -26051.583216  -5526.422026  -2679.742473    -21.731842  4  5  7  77       
PG08  -3231.748832 -17025.301693 -20093.294956   -158.952858  6  8  5  83       
PG09 -18889.496209    486.290742  18603.643106     38.944421  4  4  5  63       
PG10  12325.158112  -9401.264472 -21316.171097    -66.861450  6  4  4  89       
PG11  -4706.922853  14366.820334  21862.183311   -516.125345  5  7  6  95       
PG12  10084.885372  22964.788968   8567.452346   -461.484032  4  7  7  83       
PG13  -8107.420932  19527.606233 -16141.328205    609.623750  3  6  3  92       
PG14 -14623.966886   5415.973805 -21467.722873    281.600236  5  3  3  77       
PG15   5364.275676  17199.482685 -19941.051146    110.863395  7  6  6  96       
PG16   1443.402586 -25043.178913   7659.353090   -396.648719  6  6  7  83       
PG17 -22303.320398  11926.519024  -7908.446703    721.262404  3  5  6 101       
PG18  25816.382271   4419.465826  -4951.284418   -516.419348  2  5  6  66       
PG19 -20698.547261  16327.202426    229.214113    417.868864  5  7  6  78       
PG20  -1850.593385  22034.508675  14897.029855    394.678837  5  8  7  86       
PG21 -12051.817715 -15168.950495 -18072.077040    140.368613  8  7  5           
PG22 -11445.488624  13783.118362 -19267.638214     59.145238  6  3  4  48       
PG23  15861.760454   4530.092770 -20841.433456    123.310595  7  5  6  99       
PG24  14689.876177  15307.512782 -16630.345886   -401.477789  4  5  6  75       
PG25  15761.863448  13194.825529  16634.591324    482.971482  5  1  4  96       
PG26   6066.486924 -19898.639652  16161.584463    205.945823  4  4  6  98       
PG27   9602.996099 -21360.456701 -12371.174233    -87.679316  7  6  5  63       
PG28  18393.179651  -7926.695841  17416.005798    -80.676758  7  2  4  72       
PG29  18241.572118   1845.471519  19208.319454   -609.427151  6  6  5  58       
PG30 -23294.830536   2861.914272 -12562.837528   -452.930345  6  4  3 103       
PG31  10602.708803 -12237.264629  20913.048022   -226.900014  3  4  4  93       
PG32  20837.584312 -15352.640218  -5250.090296   -599.911402  4  4  2  75       
EOF
